ONEWEB-0132             
1 47278U 20100W   26178.20233885 -.00000528  00000+0 -15029-2 0  9991
2 47278  87.8944 348.6796 0001742  93.5742 266.5585 13.12443167265896
ONEWEB-0133             
1 47279U 20100X   26177.99044389  .00000303  00000+0  80788-3 0  9990
2 47279  87.8955 348.6989 0001661  94.0507 266.0812 13.12442939266028
ONEWEB-0134             
1 47280U 20100Y   26178.18878273 -.00000434  00000+0 -12405-2 0  9998
2 47280  87.8956 348.6566 0001813 101.3367 258.7965 13.12441184266025
ONEWEB-0135             
1 47281U 20100Z   26178.00752318  .00000379  00000+0  10187-2 0  9992
2 47281  87.8943 348.7142 0001673 101.8857 258.2459 13.12441489266027
ONEWEB-0136             
1 47282U 20100AA  26178.17862499 -.00000160  00000+0 -48056-3 0  9990
2 47282  87.8951 348.6624 0001826 103.1432 256.9901 13.12440926265970
ONEWEB-0137             
1 47283U 20100AB  26177.98380477  .00000000  00000+0 -35382-4 0  9991
2 47283  87.8955 348.7115 0001925  89.2084 270.9265 13.12443500265855
ONEWEB-0138             
1 47284U 20100AC  26178.19047758 -.00003258  00000+0 -90946-2 0  9992
2 47284  87.8952 348.6754 0001573  96.9525 263.1783 13.12455268265960
ONEWEB-0139             
1 47285U 20100AD  26178.00258472  .00000402  00000+0  10814-2 0  9992
2 47285  87.8951 348.6992 0001851  94.0706 266.0634 13.12441236266017
ONEWEB-0140             
1 47286U 20100AE  26178.18540036 -.00000383  00000+0 -10994-2 0  9991
2 47286  87.8952 348.6538 0001656  92.5957 267.5362 13.12440609266005
ONEWEB-0141             
1 47287U 20100AF  26178.00230503  .00000412  00000+0  11111-2 0  9991
2 47287  87.8951 348.6952 0002066  87.4087 272.7278 13.12442057265965
ONEWEB-0142             
1 47288U 20100AG  26177.99073580  .00000271  00000+0  71733-3 0  9999
2 47288  87.8946 348.7185 0002232  94.7949 265.3434 13.12444294265958
ONEWEB-0143             
1 47289U 20100AH  26178.00075012  .00000419  00000+0  11290-2 0  9990
2 47289  87.8951 348.7157 0001843  91.7342 268.3998 13.12442071265932
ONEWEB-0144             
1 47290U 20100AJ  26178.20064751 -.00000338  00000+0 -97435-3 0  9990
2 47290  87.8956 348.6503 0002039 102.1779 257.9578 13.12445131265884
ONEWEB-0145             
1 47291U 20100AK  26178.01937949  .00000003  00000+0 -27216-4 0  9997
2 47291  87.8946 348.7132 0001916  94.7632 265.3716 13.12440254266058
ONEWEB-0146             
1 47292U 20100AL  26178.16846895  .00000199  00000+0  51823-3 0  9998
2 47292  87.8953 348.6759 0001542  85.4515 274.6789 13.12440773265983
ONEWEB-0147             
1 47293U 20100AM  26177.98211088 -.00000013  00000+0 -70752-4 0  9998
2 47293  87.8953 348.6949 0001715  96.4902 263.6421 13.12443254265853
ONEWEB-0115             
1 48042U 21025A   26178.07880846  .00000267  00000+0  69672-3 0  9990
2 48042  87.8966 318.2539 0001763  97.6312 262.5017 13.13470028254890
ONEWEB-0152             
1 48043U 21025B   26178.09234172 -.00000091  00000+0 -28478-3 0  9994
2 48043  87.8973 318.2485 0001735  96.4021 263.7306 13.13470024254858
ONEWEB-0153             
1 48044U 21025C   26177.91797809  .00000288  00000+0  75449-3 0  9992
2 48044  87.8962 318.2854 0001939  98.8499 261.2850 13.13471025254824
ONEWEB-0154             
1 48045U 21025D   26178.14312655  .00000378  00000+0  10000-2 0  9992
2 48045  87.8968 318.2387 0001707 102.9340 257.1980 13.13468812254814
ONEWEB-0116             
1 48046U 21025E   26178.10589957  .00000369  00000+0  97618-3 0  9991
2 48046  87.8940 318.2422 0002347  92.9067 267.2331 13.13468709254952
ONEWEB-0150             
1 48047U 21025F   26178.08218961  .00000185  00000+0  47119-3 0  9990
2 48047  87.8972 318.2452 0001985  93.2716 266.8640 13.13469958254846
ONEWEB-0107             
1 48048U 21025G   26178.08388170  .00000194  00000+0  49757-3 0  9991
2 48048  87.8971 318.2406 0002110 101.2760 258.8606 13.13470508254829
ONEWEB-0101             
1 48049U 21025H   26177.89428646  .00000342  00000+0  90238-3 0  9998
2 48049  87.8956 318.2919 0001650 100.9526 259.1789 13.13471004254778
ONEWEB-0113             
1 48050U 21025J   26178.14397197  .00000308  00000+0  80367-3 0  9999
2 48050  87.8965 318.1528 0001828  94.0718 266.0621 13.13892412254916
ONEWEB-0112             
1 48051U 21025K   26178.08895503  .00000129  00000+0  31869-3 0  9991
2 48051  87.8971 318.2377 0001943 105.8424 254.2920 13.13471121254898
ONEWEB-0156             
1 48052U 21025L   26178.09743679 -.00002387  00000+0 -65758-2 0  9992
2 48052  87.8974 318.2453 0002022  96.8167 263.3192 13.13452722254875
ONEWEB-0161             
1 48053U 21025M   26177.91966882  .00000288  00000+0  75278-3 0  9991
2 48053  87.8969 318.2824 0002062  99.1872 260.9490 13.13470793254787
ONEWEB-0158             
1 48054U 21025N   26178.10756679 -.00000324  00000+0 -92081-3 0  9999
2 48054  87.8971 318.2427 0001651 101.5358 258.5957 13.13471853254936
ONEWEB-0157             
1 48055U 21025P   26178.13298160  .00000123  00000+0  30078-3 0  9992
2 48055  87.8967 318.2429 0002225 103.3016 256.8361 13.13470494254876
